const data = [
	"1 25544U 98067A   22077.48422638  .00006832  00000+0  12996-3 0  9993",
	"2 25544  51.6427  65.8013 0004001 281.6849 221.6044 15.49464203331119",
	"1 43556U 18046C   22077.10924359  .00012089  00000+0  35501-3 0  9999",
	"2 43556  51.6373 267.8928 0006588  72.1907 287.9794 15.35524774205269",
	"1 43557U 18046D   22077.08587592  .00011292  00000+0  34512-3 0  9997",
	"2 43557  51.6374 271.4290 0006909  70.3353 289.8374 15.34330093205168",
	"1 43558U 18046E   22076.80065068  .00019233  00000+0  48299-3 0  9996",
	"2 43558  51.6378 255.6718 0004861  87.9338 272.2203 15.39994660205397",
	"1 43559U 18046F   22076.99324514  .00019091  00000+0  47276-3 0  9997",
	"2 43559  51.6372 253.2356 0004730  88.7419 271.4107 15.40426874205223",
	"1 43560U 18046G   22077.03449349  .00023243  00000+0  58097-3 0  9996",
	"2 43560  51.6380 254.9830 0005122 102.9267 257.2290 15.40011643205426",
	"1 43561U 18046H   22076.87807580  .00016331  00000+0  42254-3 0  9991",
	"2 43561  51.6383 257.6533 0005616  92.5049 267.6578 15.39199251204939",
	"1 43870U 98067PU  22077.13328047  .00039028  00000+0  29191-3 0  9994",
	"2 43870  51.6338 342.4124 0001732 240.3985 119.6841 15.72279249184500",
	"1 44303U 98067QA  22077.22294098  .00061552  00000+0  44965-3 0  9997",
	"2 44303  51.6356   8.0709 0005068 170.7832 189.3260 15.72625152159452",
	"1 44306U 98067QD  22076.77140613  .00071114  00000+0  46163-3 0  9999",
	"2 44306  51.6340   7.1362 0005935 171.2992 188.8111 15.75307144159437",
	"1 44364U 98067QJ  22077.15754694  .00060392  00000+0  45671-3 0  9995",
	"2 44364  51.6383   9.9092 0005872 170.5639 189.5471 15.71809589155011",
	"1 44790U 98067QV  22077.08336413  .00026001  00000+0  11951-3 0  9998",
	"2 44790  51.6332   8.9484 0003536 184.9339 271.6506 15.83443142132359",
	"1 44791U 98067QW  22077.24191610  .00192795  00000+0  75010-3 0  9995",
	"2 44791  51.6295   7.3566 0005929 175.7500 184.3556 15.86008787132392",
	"1 45043U 98067QY  22076.19663596  .00041605  00000+0  44116-3 0  9992",
	"2 45043  51.6396  47.0217 0003214 183.4322 176.6651 15.63667949121015",
	"1 45256U 98067QZ  22077.04841343  .00332225  52912-4  97925-3 0  9992",
	"2 45256  51.6402  14.4629 0005899 194.3330 165.7510 15.92091875118194",
	"1 45257U 98067RA  22077.09170642  .00134793  00000+0  71723-3 0  9999",
	"2 45257  51.6343  22.0991 0005187 169.8494 190.2613 15.79518570118091",
	"1 45258U 98067RB  22077.11515154  .00077813  00000+0  57648-3 0  9993",
	"2 45258  51.6354  29.0662 0004808 161.5718 198.5456 15.72200764117971",
	"1 45262U 98067RF  22077.08849729  .00143651  00000+0  69643-3 0  9994",
	"2 45262  51.6408  20.0210 0003330 170.7929 189.3135 15.81529423118138",
	"1 45264U 98067RH  22077.26191875  .00041040  00000+0  41030-3 0  9997",
	"2 45264  51.6400  37.6907 0004740 199.2018 160.8800 15.65159118117909",
	"1 45265U 98067RJ  22076.91708539  .00017722  00000+0  24241-3 0  9995",
	"2 45265  51.6389  52.5590 0003768 193.0347 167.0549 15.57502196117353",
	"1 45597U 98067RK  22077.12233745  .00209165  00000+0  85470-3 0  9994",
	"2 45597  51.6337  20.8446 0003627 147.4215 212.7013 15.84961999107480",
	"1 45800U 98067RM  22077.30013979  .00027855  00000+0  32839-3 0  9991",
	"2 45800  51.6406  46.1886 0001595 105.8186 254.2983 15.61141159 99334",
	"1 45809U 98067RN  22076.91567012  .00027583  00000+0  32553-3 0  9999",
	"2 45809  51.6407  48.1219 0001870 119.2162 240.9019 15.61119053 98255",
	"1 46921U 98067RR  22077.26605062  .00068601  00000+0  58411-3 0  9999",
	"2 46921  51.6372  40.6975 0003627  86.0082 274.1330 15.68920095 77572",
	"1 46922U 98067RS  22077.10156915  .00289587  00000+0  10115-2 0  9997",
	"2 46922  51.6335  29.0683 0005491 121.2963 238.8580 15.87962476 77675",
	"1 46923U 98067RT  22076.92100344  .00068594  00000+0  58872-3 0  9998",
	"2 46923  51.6375  42.9029 0003843  85.0975 275.0461 15.68725413 77552",
	"1 46927U 98067RX  22077.22757665  .00078089  00000+0  65110-3 0  9993",
	"2 46927  51.6376  41.1959 0004392  94.9342 265.2156 15.69373295 77502",
	"1 47853U 98067RZ  22076.42937921  .00007608  00000+0  13261-3 0  9997",
	"2 47853  51.6418  68.1123 0003202  37.4222 322.6990 15.51787520 57613",
	"1 47925U 98067SB  22077.22184041  .00080197  00000+0  72260-3 0  9991",
	"2 47925  51.6384  50.1626 0003292  73.7641 286.3718 15.67471475 57420",
	"1 47926U 98067SC  22075.22612000  .00173202  00000+0  11594-2 0  9993",
	"2 47926  51.6345  55.5430 0003770  66.6393 293.5002 15.74211811 57167",
	"1 47927U 98067SD  22077.22597468  .00064675  00000+0  63908-3 0  9996",
	"2 47927  51.6375  51.6837 0002894  67.8606 292.2696 15.65264809 57402",
	"1 47928U 98067SE  22077.18241773  .00217442  00000+0  11755-2 0  9991",
	"2 47928  51.6337  45.3416 0007220  90.8115 269.3714 15.78897820 57464",
	"1 47976U 98067SJ  22077.30250257  .00016335  00000+0  24935-3 0  9998",
	"2 47976  51.6445  61.1610 0003155  55.6084 304.5201 15.54581231 56064",
	"1 48274U 21035A   22077.23524943  .00021627  00000+0  23541-3 0  9991",
	"2 48274  41.4693  52.9570 0005696 196.5982 113.4495 15.62892324 50541",
	"1 48803U 21046A   22076.25581019  .00025096  00000+0  27274-3 0  9990",
	"2 48803  41.4692  58.9367 0005416 189.0585   3.1932 15.62866776 50390",
	"1 48850U 98067SL  22076.34706758  .00040806  00000+0  52304-3 0  9996",
	"2 48850  51.6394  63.7906 0005650  74.9552 285.2066 15.58731646 42915",
	"1 48867U 98067SN  22077.23430742  .00044698  00000+0  54601-3 0  9995",
	"2 48867  51.6373  58.4541 0004695  96.4624 263.6904 15.59966222 41813",
	"1 48868U 98067SP  22077.16947093  .00212734  00000+0  12801-2 0  9993",
	"2 48868  51.6326  51.2376 0006967  95.6818 264.4977 15.76512172 41931",
	"1 49044U 21066A   22076.51729341  .00007920  00000+0  14939-3 0  9991",
	"2 49044  51.6428  70.5882 0004057 277.1381 229.0043 15.49454342330966",
	"1 49222U 21085A   22076.25581019  .00025096  00000+0  27274-3 0  9999",
	"2 49222  41.4692  58.9367 0005416 189.0585   3.1932 15.62866776 50396",
	"1 49269U 21089A   22076.51729341  .00007920  00000+0  14939-3 0  9995",
	"2 49269  51.6428  70.5882 0004057 277.1381 229.0043 15.49454342330965",
	"1 49271U 11037PF  22077.12792017  .00064515  00000+0  14724+0 0  9999",
	"2 49271  51.6940 120.6226 1151128 220.5225 130.4139 11.84698038 36341",
	"1 49272U 98067SR  22077.21130829  .00040734  00000+0  54803-3 0  9998",
	"2 49272  51.6389  62.7943 0004468   9.5494 350.5582 15.57446264 25393",
	"1 49273U 98067SS  22077.20240707  .00052763  00000+0  65471-3 0  9993",
	"2 49273  51.6390  61.9872 0004261  17.0118 343.1017 15.59483353 25401",
	"1 49274U 98067ST  22076.44041595  .00055559  00000+0  69441-3 0  9990",
	"2 49274  51.6382  65.8977 0004150  13.3083 346.8018 15.59270820 25289",
	"1 49275U 98067SU  22077.24437492  .00049287  00000+0  63239-3 0  9995",
	"2 49275  51.6400  62.0027 0004671  22.3975 102.3700 15.58625373 25351",
	"1 49276U 98067SV  22076.42417363  .00043586  00000+0  59254-3 0  9998",
	"2 49276  51.6402  67.2876 0005309  14.7898 345.3248 15.57131990 24329",
	"1 49277U 98067SW  22077.15913509  .00047144  00000+0  61920-3 0  9990",
	"2 49277  51.6366  63.1786 0005592  13.6006 346.5136 15.58017509 24416",
	"1 49278U 98067SX  22076.54443299  .00276934  00000+0  17457-2 0  9993",
	"2 49278  51.6328  60.5615 0006133  64.8046 295.3589 15.75269878 24411",
	"1 49326U 21092A   22076.25581019  .00025096  00000+0  27274-3 0  9992",
	"2 49326  41.4692  58.9367 0005416 189.0585   3.1932 15.62866776 50391",
	"1 49379U 21098A   22076.51729341  .00007920  00000+0  14939-3 0  9997",
	"2 49379  51.6428  70.5882 0004057 277.1381 229.0043 15.49454342330967",
	"1 49407U 21103A   22076.51729341  .00007920  00000+0  14939-3 0  9996",
	"2 49407  51.6428  70.5882 0004057 277.1381 229.0043 15.49454342330969",
	"1 51277U 98067SY  22077.18852533  .00305524  00000+0  26075-2 0  9995",
	"2 51277  51.6349  64.1278 0006461 113.1303 247.0375 15.67988592  9141",
	"1 51279U 98067TA  22077.20920967  .00275165  00000+0  24922-2 0  9993",
	"2 51279  51.6361  64.2677 0006045 114.2758 245.8870 15.66620394  9154",
	"1 51439U 98067TB  22077.19933195  .00096220  00000+0  12514-2 0  9993",
	"2 51439  51.6389  65.7066 0002083 200.0257 160.0654 15.57985849  7915",
	"1 51440U 98067TC  22077.22274850  .00118274  00000+0  13867-2 0  9991",
	"2 51440  51.6391  65.1130 0002063 155.8325 204.2766 15.60622252  7989",
	"1 51441U 98067TD  22077.26753313  .00030100  00000+0  47826-3 0  9996",
	"2 51441  51.6405  66.1613 0005159 260.7842  99.2564 15.53053774  7967",
	"1 51442U 98067TE  22077.26226247  .00029753  00000+0  46968-3 0  9996",
	"2 51442  51.6401  66.1259 0005279 270.0942  89.9444 15.53239854  7922",
	"1 51443U 98067TF  22077.27507220  .00059835  00000+0  83548-3 0  9990",
	"2 51443  51.6394  65.4634 0004419 236.5193 123.5376 15.56278427  7890",
	"1 51509U 98067TG  22076.95979726  .00022920  00000+0  37431-3 0  9996",
	"2 51509  51.6404  67.8547 0006587 246.8448 113.1848 15.52441119  6657",
	"1 51510U 98067TH  22077.18040796  .00066718  00000+0  95485-3 0  9996",
	"2 51510  51.6392  66.3284 0003536 227.9151 132.1540 15.55567337  6710",
	"1 51660U 22014A   22076.51729341  .00007920  00000+0  14939-3 0  9992",
	"2 51660  51.6428  70.5882 0004057 277.1381 229.0043 15.49454342330963",
	"1 51712U 22015A   22076.51729341  .00007920  00000+0  14939-3 0  9991",
	"2 51712  51.6428  70.5882 0004057 277.1381 229.0043 15.49454342330961"
];

export default data;
